FENGYUN 1C DEB          
1 30913U 99025AZB 17345.10327400  .00000222  00000-0  17761-3 0  9999
2 30913  99.0200  44.1019 0048203  38.9310  22.6517 14.00361599549838
